SCD 1                   
1 22490U 93009B   26171.33203697  .00000313  00000+0  34510-4 0  9991
2 22490  24.9675 188.1587 0041952 170.9157 213.0702 14.46119674761575
TECHSAT 1B (GO-32)      
1 25397U 98043D   26171.43605319  .00000032  00000+0  33890-4 0  9999
2 25397  99.0068 164.2767 0001219 156.5266 203.5967 14.24428915451795
SCD 2                   
1 25504U 98060A   26171.07540117  .00000341  00000+0  44252-4 0  9999
2 25504  24.9960  54.3455 0016856 153.1205 320.9038 14.45526782460747
DLR-TUBSAT              
1 25757U 99029B   26170.98014943  .00000046  00000+0  23075-4 0  9999
2 25757  98.6694 166.5761 0013868 346.6123  13.4702 14.52427375433651
TERRA                   
1 25994U 99068A   26171.44083515  .00000275  00000+0  65041-4 0  9991
2 25994  97.9454 220.8581 0001842 178.7606 238.1366 14.61105267410080
MAROC-TUBSAT            
1 27004U 01056D   26171.37260714 -.00000034  00000+0  13845-4 0  9994
2 27004  99.8084 348.2921 0020418 133.3391 346.0489 13.70262541226623
AQUA                    
1 27424U 02022A   26171.42470413  .00000562  00000+0  12157-3 0  9998
2 27424  98.4278 140.7722 0000982  55.9702  96.4678 14.62162126283744
SHIYAN-1 (SY-1)         
1 28220U 04012A   26171.18463165  .00011063  00000+0  34057-3 0  9994
2 28220  97.8685 249.4480 0005306  22.5113 337.6360 15.33824479211556
AURA                    
1 28376U 04026A   26171.40966628  .00000566  00000+0  12442-3 0  9998
2 28376  98.3418 127.8897 0001187  77.8282 282.3052 14.61333094166687
IRS-P5 (CARTOSAT-1)     
1 28649U 05017A   26171.03106645  .00000963  00000+0  10255-3 0  9997
2 28649  97.5305 193.9666 0002525  76.4954 283.6546 14.91055438144248
SINAH 1                 
1 28893U 05043D   26171.40278067  .00000224  00000+0  51932-4 0  9994
2 28893  98.2865 305.7437 0013138 265.6982  94.2719 14.64159377100991
RESURS-DK 1             
1 29228U 06021A   26171.40661411  .00001448  00000+0  87373-4 0  9990
2 29228  69.9331 331.2197 0006868 290.2744  69.7684 15.13228164103061
HAIYANG-1B              
1 31113U 07010A   26171.43105603  .00000067  00000+0  41288-4 0  9995
2 31113  98.3495 153.1505 0013231 186.4668 173.6347 14.31027586  1108
TERRASAR-X              
1 31698U 07026A   26170.49711592  .00000145  00000+0  10104-4 0  9995
2 31698  97.4452 178.1696 0001572  90.3933 269.7482 15.19151206 53579
WORLDVIEW-1 (WV-1)      
1 32060U 07041A   26171.44311463  .00004743  00000+0  19700-3 0  9993
2 32060  97.3881 291.1401 0001947  10.6143 349.5135 15.24296645 43374
GEOEYE 1                
1 33331U 08042A   26171.43092722  .00000322  00000+0  69364-4 0  9991
2 33331  98.1235 245.3211 0005299  61.7686 298.4052 14.64728217950624
YAOGAN-4                
1 33446U 08061A   26171.40531236  .00000754  00000+0  98778-4 0  9994
2 33446  97.9306 104.8918 0015630  62.9607 297.3200 14.83205273946144
GOSAT (IBUKI)           
1 33492U 09002A   26171.20655268  .00000825  00000+0  15400-3 0  9990
2 33492  98.0896 282.2496 0001472  79.8858 280.2513 14.67540318931907
